[{"OBJECT_NAME":"STARLINK-30076","OBJECT_ID":"2023-079S","EPOCH":"2026-03-09T22:00:01.999584","MEAN_MOTION":15.1691444,"ECCENTRICITY":8.779e-5,"INCLINATION":43.0004,"RA_OF_ASC_NODE":105.312,"ARG_OF_PERICENTER":257.756,"MEAN_ANOMALY":261.8384,"EPHEMERIS_TYPE":0,"CLASSIFICATION_TYPE":"U","NORAD_CAT_ID":56839,"ELEMENT_SET_NO":999,"REV_AT_EPOCH":572,"BSTAR":0.061744286,"MEAN_MOTION_DOT":0.01347453,"MEAN_MOTION_DDOT":0},{"OBJECT_NAME":"HJ-2F","OBJECT_ID":"2023-116A","EPOCH":"2026-03-09T22:49:19.583040","MEAN_MOTION":15.20784398,"ECCENTRICITY":0.00100751,"INCLINATION":97.3886,"RA_OF_ASC_NODE":75.9939,"ARG_OF_PERICENTER":41.1134,"MEAN_ANOMALY":319.0859,"EPHEMERIS_TYPE":0,"CLASSIFICATION_TYPE":"U","NORAD_CAT_ID":57519,"ELEMENT_SET_NO":999,"REV_AT_EPOCH":14366,"BSTAR":0.00048860697,"MEAN_MOTION_DOT":0.00010719,"MEAN_MOTION_DDOT":0}]
